[{"OBJECT_NAME":"SPARK 2","OBJECT_ID":"2016-081D","EPOCH":"2026-03-09T21:43:21.567936","MEAN_MOTION":14.59036805,"ECCENTRICITY":0.00241409,"INCLINATION":98.5438,"RA_OF_ASC_NODE":55.7698,"ARG_OF_PERICENTER":270.8992,"MEAN_ANOMALY":88.944,"EPHEMERIS_TYPE":0,"CLASSIFICATION_TYPE":"U","NORAD_CAT_ID":41901,"ELEMENT_SET_NO":999,"REV_AT_EPOCH":48964,"BSTAR":0.00022054708,"MEAN_MOTION_DOT":9.9e-6,"MEAN_MOTION_DDOT":0},{"OBJECT_NAME":"PICOSAT 6","OBJECT_ID":"2000-004M","EPOCH":"2026-03-09T10:36:46.816992","MEAN_MOTION":14.47136889,"ECCENTRICITY":0.00324861,"INCLINATION":100.2186,"RA_OF_ASC_NODE":65.0015,"ARG_OF_PERICENTER":110.5474,"MEAN_ANOMALY":249.9203,"EPHEMERIS_TYPE":0,"CLASSIFICATION_TYPE":"U","NORAD_CAT_ID":26094,"ELEMENT_SET_NO":999,"REV_AT_EPOCH":37080,"BSTAR":0.0003199559,"MEAN_MOTION_DOT":1.113e-5,"MEAN_MOTION_DDOT":0}]
